NORAD_CAT_ID,OBJECT_NAME,OBJECT_TYPE,EPOCH,MEAN_MOTION,ECCENTRICITY,INCLINATION,RA_OF_ASC_NODE,ARG_OF_PERICENTER,MEAN_ANOMALY,BSTAR,MEAN_MOTION_DOT,MEAN_MOTION_DDOT,TLE_LINE0,TLE_LINE1,TLE_LINE2,SEMIMAJOR_AXIS,PERIOD,APOGEE,PERIGEE,DECAYED
53612.0,STARLINK-4658,PAYLOAD,2024-02-27 23:47:09,15.08838416,0.0001368,53.2171,319.3226,92.8451,267.2697,9.5511e-05,1.232e-05,0.0,0 STARLINK-4658,1 53612U 22104AA  24058.99107817  .00001232  00000-0  95511-4 0  9990,2 53612  53.2171 319.3226 0001368  92.8451 267.2697 15.08838416 83814,6917.885,95.438,540.697,538.804,0.0
53612.0,STARLINK-4658,PAYLOAD,2024-02-28 20:27:10,15.08807628,0.0001588,53.217,315.4564,102.7261,257.3908,0.00045746,6.994e-05,0.0,0 STARLINK-4658,1 53612U 22104AA  24059.85220566  .00006994  00000-0  45746-3 0  9997,2 53612  53.2170 315.4564 0001588 102.7261 257.3908 15.08807628 83376,6917.979,95.44,540.943,538.746,0.0
53612.0,STARLINK-4658,PAYLOAD,2024-02-28 22:02:33,15.08835545,0.0001467,53.2172,315.159,100.589,259.5268,0.00010006,1.305e-05,0.0,0 STARLINK-4658,1 53612U 22104AA  24059.91844155  .00001305  00000-0  10006-3 0  9992,2 53612  53.2172 315.1590 0001467 100.5890 259.5268 15.08835545 83950,6917.894,95.438,540.774,538.744,0.0
53612.0,STARLINK-4658,PAYLOAD,2024-02-28 23:37:56,15.08835841,0.0001455,53.2173,314.8618,100.1474,259.9683,9.932e-05,1.293e-05,0.0,0 STARLINK-4658,1 53612U 22104AA  24059.98468166  .00001293  00000-0  99320-4 0  9996,2 53612  53.2173 314.8618 0001455 100.1474 259.9683 15.08835841 83391,6917.893,95.438,540.765,538.752,0.0
53612.0,STARLINK-4658,PAYLOAD,2024-02-29 21:53:20,15.0883919,0.0001463,53.2175,310.699,100.5573,259.5584,9.0912e-05,1.159e-05,0.0,0 STARLINK-4658,1 53612U 22104AA  24060.91204209  .00001159  00000-0  90912-4 0  9996,2 53612  53.2175 310.6990 0001463 100.5573 259.5584 15.08839190 84100,6917.883,95.438,540.76,538.736,0.0
53612.0,STARLINK-4658,PAYLOAD,2024-03-01 02:39:29,15.08843465,0.0001401,53.2172,309.8059,100.3021,259.8129,8.2345e-05,1.023e-05,0.0,0 STARLINK-4658,1 53612U 22104AA  24061.11075920  .00001023  00000-0  82345-4 0  9996,2 53612  53.2172 309.8059 0001401 100.3021 259.8129 15.08843465 83568,6917.87,95.437,540.704,538.766,0.0
53612.0,STARLINK-4658,PAYLOAD,2024-03-01 09:01:02,15.08840931,0.0001397,53.2173,308.6152,101.6599,258.455,8.5269e-05,1.069e-05,0.0,0 STARLINK-4658,1 53612U 22104AA  24061.37572095  .00001069  00000-0  85269-4 0  9997,2 53612  53.2173 308.6152 0001397 101.6599 258.4550 15.08840931 84174,6917.878,95.437,540.709,538.776,0.0
53612.0,STARLINK-4658,PAYLOAD,2024-03-01 20:08:44,15.08838944,0.0001404,53.2176,306.5336,94.7214,265.3939,7.1472e-05,8.5e-06,0.0,0 STARLINK-4658,1 53612U 22104AA  24061.83940306  .00000850  00000-0  71472-4 0  9990,2 53612  53.2176 306.5336 0001404  94.7214 265.3939 15.08838944 83676,6917.884,95.438,540.72,538.777,0.0
53612.0,STARLINK-4658,PAYLOAD,2024-03-01 21:44:07,15.08840134,0.0001426,53.2178,306.2362,93.5784,266.5372,8.1575e-05,1.011e-05,0.0,0 STARLINK-4658,1 53612U 22104AA  24061.90564211  .00001011  00000-0  81575-4 0  9990,2 53612  53.2178 306.2362 0001426  93.5784 266.5372 15.08840134 84250,6917.88,95.438,540.731,538.758,0.0
53612.0,STARLINK-4658,PAYLOAD,2024-03-02 21:34:54,15.08843209,0.0001364,53.2174,301.7757,91.3106,268.8042,5.1662e-05,5.34e-06,0.0,0 STARLINK-4658,1 53612U 22104AA  24062.89924092  .00000534  00000-0  51662-4 0  9999,2 53612  53.2174 301.7757 0001364  91.3106 268.8042 15.08843209 84401,6917.871,95.437,540.679,538.792,0.0
53612.0,STARLINK-4658,PAYLOAD,2024-03-03 00:45:40,15.08846509,0.0001377,53.2175,301.1809,87.015,273.1,7.6641e-05,9.32e-06,0.0,0 STARLINK-4658,1 53612U 22104AA  24063.03171796  .00000932  00000-0  76641-4 0  9997,2 53612  53.2175 301.1809 0001377  87.0150 273.1000 15.08846509 83856,6917.86,95.437,540.678,538.773,0.0
53612.0,STARLINK-4658,PAYLOAD,2024-03-03 08:42:36,15.08842486,0.0001475,53.218,299.6936,82.2356,277.8803,3.5559e-05,2.78e-06,0.0,0 STARLINK-4658,1 53612U 22104AA  24063.36292176  .00000278  00000-0  35559-4 0  9995,2 53612  53.2180 299.6936 0001475  82.2356 277.8803 15.08842486 84479,6917.873,95.437,540.758,538.717,0.0
53612.0,STARLINK-4658,PAYLOAD,2024-03-03 19:50:19,15.08832443,0.0001606,53.2185,297.6127,85.047,275.0705,1.154e-06,-2.7e-06,0.0,0 STARLINK-4658,1 53612U 22104AA  24063.82660989 -.00000270  00000-0  11540-5 0  9995,2 53612  53.2185 297.6127 0001606  85.0470 275.0705 15.08832443 84549,6917.903,95.438,540.88,538.657,0.0
53612.0,STARLINK-4658,PAYLOAD,2024-03-04 00:36:27,15.0884321,0.0001315,53.2176,296.717,86.5147,273.5996,7.0575e-05,8.36e-06,0.0,0 STARLINK-4658,1 53612U 22104AA  24064.02532123  .00000836  00000-0  70575-4 0  9995,2 53612  53.2176 296.7170 0001315  86.5147 273.5996 15.08843210 84001,6917.871,95.437,540.645,538.826,0.0
53612.0,STARLINK-4658,PAYLOAD,2024-03-04 08:33:23,15.08848089,0.0001436,53.2176,295.2346,83.3531,276.7625,0.00011686,1.573e-05,0.0,0 STARLINK-4658,1 53612U 22104AA  24064.35651721  .00001573  00000-0  11686-3 0  9993,2 53612  53.2176 295.2346 0001436  83.3531 276.7625 15.08848089 84627,6917.856,95.437,540.714,538.727,0.0
53612.0,STARLINK-4658,PAYLOAD,2024-03-04 21:16:26,15.08861961,0.0001209,53.2162,292.8561,91.1489,268.9642,0.00018999,2.739e-05,0.0,0 STARLINK-4658,1 53612U 22104AA  24064.88642330  .00002739  00000-0  18999-3 0  9996,2 53612  53.2162 292.8561 0001209  91.1489 268.9642 15.08861961 84133,6917.813,95.436,540.515,538.842,0.0
53612.0,STARLINK-4658,PAYLOAD,2024-03-04 22:51:50,15.08863336,0.0001267,53.2159,292.5587,89.5144,270.5994,0.00031965,4.806e-05,0.0,0 STARLINK-4658,1 53612U 22104AA  24064.95266586  .00004806  00000-0  31965-3 0  9994,2 53612  53.2159 292.5587 0001267  89.5144 270.5994 15.08863336 84718,6917.809,95.436,540.551,538.798,0.0
53612.0,STARLINK-4658,PAYLOAD,2024-03-05 14:45:42,15.08837876,0.0001082,53.2154,289.585,88.3338,271.7778,-3.8015e-05,-8.93e-06,0.0,0 STARLINK-4658,1 53612U 22104AA  24065.61507701 -.00000893  00000-0 -38015-4 0  9993,2 53612  53.2154 289.5850 0001082  88.3338 271.7778 15.08837876 84813,6917.887,95.438,540.5,539.003,0.0
53612.0,STARLINK-4658,PAYLOAD,2024-03-05 19:31:52,15.08833704,0.0001258,53.2154,288.693,78.0441,282.0692,-8.0223e-05,-1.564e-05,0.0,0 STARLINK-4658,1 53612U 22104AA  24065.81379651 -.00001564  00000-0 -80223-4 0  9990,2 53612  53.2154 288.6930 0001258  78.0441 282.0692 15.08833704 84274,6917.9,95.438,540.635,538.894,0.0
53612.0,STARLINK-4658,PAYLOAD,2024-03-05 21:07:15,15.08832803,0.0001285,53.2154,288.3952,104.1243,255.9892,-7.9963e-05,-1.56e-05,0.0,0 STARLINK-4658,1 53612U 22104AA  24065.88003548 -.00001560  00000-0 -79963-4 0  9991,2 53612  53.2154 288.3952 0001285 104.1243 255.9892 15.08832803 84850,6917.902,95.438,540.656,538.878,0.0
53612.0,STARLINK-4658,PAYLOAD,2024-03-06 20:58:03,15.08837278,0.0001261,53.2154,283.9356,102.7889,257.3244,0.0007153,0.00011114,0.0,0 STARLINK-4658,1 53612U 22104AA  24066.87364617  .00011114  00000-0  71530-3 0  9993,2 53612  53.2154 283.9356 0001261 102.7889 257.3244 15.08837278 84435,6917.889,95.438,540.626,538.881,0.0
53612.0,STARLINK-4658,PAYLOAD,2024-03-07 23:59:36,15.0885043,0.000133,53.2155,278.8792,106.9182,253.1956,0.0005557,8.57e-05,0.0,0 STARLINK-4658,1 53612U 22104AA  24067.99972532  .00008570  00000-0  55570-3 0  9996,2 53612  53.2155 278.8792 0001330 106.9182 253.1956 15.08850430 84600,6917.849,95.437,540.634,538.793,0.0
53612.0,STARLINK-4658,PAYLOAD,2024-03-08 22:15:00,15.08845663,0.0001298,53.2156,274.7133,93.9616,266.1524,0.00020042,2.904e-05,0.0,0 STARLINK-4658,1 53612U 22104AA  24068.92708480  .00002904  00000-0  20042-3 0  9990,2 53612  53.2156 274.7133 0001298  93.9616 266.1524 15.08845663 85311,6917.863,95.437,540.626,538.83,0.0
53612.0,STARLINK-4658,PAYLOAD,2024-03-09 12:33:28,15.08838266,0.0001312,53.2151,272.0387,93.7615,266.3527,-1.7497e-05,-5.66e-06,0.0,0 STARLINK-4658,1 53612U 22104AA  24069.52324693 -.00000566  00000-0 -17497-4 0  9992,2 53612  53.2151 272.0387 0001312  93.7615 266.3527 15.08838266 85408,6917.886,95.438,540.658,538.843,0.0
53612.0,STARLINK-4658,PAYLOAD,2024-03-09 20:30:24,15.08842321,0.0001233,53.2145,270.5524,96.1243,263.989,4.5033e-05,4.29e-06,0.0,0 STARLINK-4658,1 53612U 22104AA  24069.85444508  .00000429  00000-0  45033-4 0  9999,2 53612  53.2145 270.5524 0001233  96.1243 263.9890 15.08842321 85451,6917.873,95.437,540.591,538.885,0.0
53612.0,STARLINK-4658,PAYLOAD,2024-03-10 06:02:42,15.08846157,0.0001086,53.2146,268.7687,101.4156,258.6959,-8.6699e-05,-1.668e-05,0.0,0 STARLINK-4658,1 53612U 22104AA  24070.25188169 -.00001668  00000-0 -86699-4 0  9994,2 53612  53.2146 268.7687 0001086 101.4156 258.6959 15.08846157 84941,6917.862,95.437,540.478,538.975,0.0
53612.0,STARLINK-4658,PAYLOAD,2024-03-10 20:21:11,15.08832525,0.0001277,53.2147,266.092,96.2879,263.8258,9.9214e-06,-1.3e-06,0.0,0 STARLINK-4658,1 53612U 22104AA  24070.84805120 -.00000130  00000-0  99214-5 0  9992,2 53612  53.2147 266.0920 0001277  96.2879 263.8258 15.08832525 85033,6917.903,95.438,540.652,538.885,0.0
53612.0,STARLINK-4658,PAYLOAD,2024-03-10 21:56:34,15.08834796,0.0001388,53.2162,265.7949,90.296,269.8191,7.3e-05,8.74e-06,0.0,0 STARLINK-4658,1 53612U 22104AA  24070.91429368  .00000874  00000-0  73000-4 0  9994,2 53612  53.2162 265.7949 0001388  90.2960 269.8191 15.08834796 85613,6917.896,95.438,540.721,538.801,0.0
53612.0,STARLINK-4658,PAYLOAD,2024-03-11 05:53:30,15.0883744,0.0001288,53.2162,264.3065,88.9175,271.1964,8.9117e-05,1.131e-05,0.0,0 STARLINK-4658,1 53612U 22104AA  24071.24549214  .00001131  00000-0  89117-4 0  9997,2 53612  53.2162 264.3065 0001288  88.9175 271.1964 15.08837440 85666,6917.888,95.438,540.644,538.862,0.0
53612.0,STARLINK-4658,PAYLOAD,2024-03-12 12:05:50,15.08827693,0.0001369,53.2158,258.6556,89.9019,270.213,0.00031601,4.743e-05,0.0,0 STARLINK-4658,1 53612U 22104AA  24072.50405616  .00004743  00000-0  31601-3 0  9990,2 53612  53.2158 258.6556 0001369  89.9019 270.2130 15.08827693 85282,6917.918,95.438,540.73,538.836,0.0
